OBJECT_NAME,OBJECT_ID,EPOCH,MEAN_MOTION,ECCENTRICITY,INCLINATION,RA_OF_ASC_NODE,ARG_OF_PERICENTER,MEAN_ANOMALY,EPHEMERIS_TYPE,CLASSIFICATION_TYPE,NORAD_CAT_ID,ELEMENT_SET_NO,REV_AT_EPOCH,BSTAR,MEAN_MOTION_DOT,MEAN_MOTION_DDOT
ONEWEB-0499,2022-138E,2026-07-07T19:57:44.565984,13.19723830,.0001831,87.9183,300.8602,105.9304,254.2030,0,U,54117,999,17954,.21079E-3,.97E-6,0
ONEWEB-0500,2022-138F,2026-07-07T20:01:10.968672,13.19725528,.0002059,87.9192,300.8552,100.1547,259.9818,0,U,54118,999,17955,.22967E-4,.22E-6,0
ONEWEB-0501,2022-138G,2026-07-07T20:44:23.260704,13.19736173,.0002069,87.9192,300.8487,141.3651,218.7630,0,U,54119,999,17953,.34782E-2,.1406E-4,0
ONEWEB-0502,2022-138H,2026-07-07T20:23:55.489920,13.19725187,.0001843,87.9193,300.8410,106.8467,253.2868,0,U,54120,999,17955,-.14852E-3,-.47E-6,0
ONEWEB-0503,2022-138J,2026-07-07T20:08:00.127104,13.19718756,.0001903,87.9195,300.8493,95.6475,264.4874,0,U,54121,999,17954,.34684E-2,.1402E-4,0
ONEWEB-0504,2022-138K,2026-07-07T19:49:48.317088,13.19726163,.0001792,87.9193,300.8566,107.1273,253.0056,0,U,54122,999,17955,.16211E-3,.78E-6,0
ONEWEB-0505,2022-138L,2026-07-07T19:45:14.020416,13.19727066,.0001784,87.9191,300.8578,114.6026,245.5293,0,U,54123,999,17953,.76661E-4,.44E-6,0
ONEWEB-0506,2022-138M,2026-07-07T20:58:03.023904,13.19725123,.0001917,87.9192,300.8453,110.2659,249.8680,0,U,54124,999,17953,.81457E-4,.46E-6,0
ONEWEB-0507,2022-138N,2026-07-07T19:38:25.783872,13.19726394,.0001969,87.9186,300.8663,106.8282,253.3066,0,U,54125,999,17957,-.2573E-4,.3E-7,0
ONEWEB-0508,2022-138P,2026-07-07T19:33:53.078688,13.19725678,.0002056,87.9185,300.8663,113.2761,246.8588,0,U,54126,999,17955,.69311E-4,.41E-6,0
ONEWEB-0509,2022-138Q,2026-07-07T20:46:38.728128,13.19724207,.0001929,87.9195,300.8485,103.5784,256.5564,0,U,54127,999,17953,-.58277E-4,-.1E-6,0
ONEWEB-0510,2022-138R,2026-07-07T17:42:29.764800,13.20771283,.0002131,87.9187,270.3412,86.7912,273.3465,0,U,54128,999,18199,-.39966E-3,-.15E-5,0
ONEWEB-0511,2022-138S,2026-07-07T20:42:05.329152,13.19727211,.0001671,87.9190,300.8508,100.9135,259.2186,0,U,54129,999,17956,.10345E-3,.54E-6,0
ONEWEB-0512,2022-138T,2026-07-07T20:30:43.907904,13.19726385,.0001727,87.9183,300.8560,108.0632,252.0689,0,U,54130,999,17953,.16924E-4,.2E-6,0
ONEWEB-0513,2022-138U,2026-07-07T20:26:34.757952,13.20269814,.0001232,87.9190,300.7981,121.2007,238.9247,0,U,54131,999,17944,.32525E-4,.26E-6,0
ONEWEB-0514,2022-138V,2026-07-07T20:53:29.121216,13.19726053,.0001996,87.9191,300.8487,96.2550,263.8811,0,U,54132,999,17955,.26723E-4,.24E-6,0
ONEWEB-0515,2022-138W,2026-07-08T04:17:40.840224,13.20772088,.0002914,87.9195,270.2486,93.1958,266.9509,0,U,54133,999,18207,.24523E-3,.113E-5,0
ONEWEB-0516,2022-138X,2026-07-07T20:17:04.390080,13.19726299,.000205,87.9185,300.8579,104.2820,255.8541,0,U,54134,999,17955,-.52234E-4,-.8E-7,0
ONEWEB-0517,2022-138Y,2026-07-07T19:47:31.674624,13.19725550,.0001713,87.9194,300.8559,95.7653,264.3675,0,U,54135,999,17955,.16017E-3,.77E-6,0
ONEWEB-0518,2022-138Z,2026-07-07T20:14:47.931648,13.19723815,.0002132,87.9185,300.8604,102.4840,257.6532,0,U,54136,999,17955,-.28699E-4,.1E-7,0
ONEWEB-0519,2022-138AA,2026-07-07T20:51:11.352960,13.19727203,.0001825,87.9190,300.8487,95.8803,264.2538,0,U,54137,999,17956,.66115E-4,.39E-6,0
ONEWEB-0520,2022-138AB,2026-07-07T19:52:04.784160,13.19725914,.0001924,87.9195,300.8565,108.7835,251.3506,0,U,54138,999,17954,-.16311E-4,.6E-7,0
ONEWEB-0521,2022-138AC,2026-07-07T20:39:49.580064,13.19726783,.0001868,87.9194,300.8392,94.7454,265.3892,0,U,54139,999,17949,.42573E-4,.3E-6,0
ONEWEB-0522,2022-138AD,2026-07-07T20:10:16.652064,13.19725528,.0001871,87.9196,300.8459,104.5381,255.5959,0,U,54140,999,17953,-.64863E-4,-.13E-6,0
ONEWEB-0523,2022-138AE,2026-07-07T17:03:43.791264,13.20772250,.0002521,87.9192,270.3518,82.5428,277.5992,0,U,54141,999,18201,.11109E-3,.58E-6,0
ONEWEB-0524,2022-138AF,2026-07-07T18:38:16.779840,13.20772388,.0002939,87.9193,270.3351,98.1811,261.9656,0,U,54142,999,18202,.18442E-4,.2E-6,0
ONEWEB-0525,2022-138AG,2026-07-07T20:37:32.680992,13.19726927,.0002036,87.9190,300.8486,110.3395,249.7956,0,U,54143,999,17955,-.12403E-4,.8E-7,0
ONEWEB-0526,2022-138AH,2026-07-08T02:52:49.899936,13.19725313,.0002067,87.9192,300.7979,104.6981,255.4381,0,U,54144,999,17956,-.34913E-3,-.127E-5,0
ONEWEB-0529,2022-138AJ,2026-07-07T19:40:42.429792,13.19725591,.0001952,87.9185,300.8651,107.6748,252.4598,0,U,54145,999,17954,.10612E-3,.55E-6,0
ONEWEB-0531,2022-138AK,2026-07-07T18:18:52.767072,13.20772776,.000277,87.9190,270.3350,86.3585,273.7865,0,U,54146,999,18202,-.27558E-3,-.99E-6,0
