ONEWEB-0499             
1 54117U 22138E   26188.83176581  .00000097  00000+0  21079-3 0  9995
2 54117  87.9183 300.8602 0001831 105.9304 254.2030 13.19723830179549
ONEWEB-0500             
1 54118U 22138F   26188.83415473  .00000022  00000+0  22967-4 0  9998
2 54118  87.9192 300.8552 0002059 100.1547 259.9818 13.19725528179556
ONEWEB-0501             
1 54119U 22138G   26188.86415811  .00001406  00000+0  34782-2 0  9991
2 54119  87.9192 300.8487 0002069 141.3651 218.7630 13.19736173179539
ONEWEB-0502             
1 54120U 22138H   26188.84994780 -.00000047  00000+0 -14852-3 0  9997
2 54120  87.9193 300.8410 0001843 106.8467 253.2868 13.19725187179550
ONEWEB-0503             
1 54121U 22138J   26188.83889036  .00001402  00000+0  34684-2 0  9992
2 54121  87.9195 300.8493 0001903  95.6475 264.4874 13.19718756179549
ONEWEB-0504             
1 54122U 22138K   26188.82625367  .00000078  00000+0  16211-3 0  9992
2 54122  87.9193 300.8566 0001792 107.1273 253.0056 13.19726163179558
ONEWEB-0505             
1 54123U 22138L   26188.82307894  .00000044  00000+0  76661-4 0  9994
2 54123  87.9191 300.8578 0001784 114.6026 245.5293 13.19727066179530
ONEWEB-0506             
1 54124U 22138M   26188.87364611  .00000046  00000+0  81457-4 0  9991
2 54124  87.9192 300.8453 0001917 110.2659 249.8680 13.19725123179535
ONEWEB-0507             
1 54125U 22138N   26188.81835398  .00000003  00000+0 -25730-4 0  9997
2 54125  87.9186 300.8663 0001969 106.8282 253.3066 13.19726394179575
ONEWEB-0508             
1 54126U 22138P   26188.81519767  .00000041  00000+0  69311-4 0  9991
2 54126  87.9185 300.8663 0002056 113.2761 246.8588 13.19725678179555
ONEWEB-0509             
1 54127U 22138Q   26188.86572602 -.00000010  00000+0 -58277-4 0  9991
2 54127  87.9195 300.8485 0001929 103.5784 256.5564 13.19724207179531
ONEWEB-0510             
1 54128U 22138R   26188.73784450 -.00000150  00000+0 -39966-3 0  9992
2 54128  87.9187 270.3412 0002131  86.7912 273.3465 13.20771283181993
ONEWEB-0511             
1 54129U 22138S   26188.86256168  .00000054  00000+0  10345-3 0  9998
2 54129  87.9190 300.8508 0001671 100.9135 259.2186 13.19727211179560
ONEWEB-0512             
1 54130U 22138T   26188.85467486  .00000020  00000+0  16924-4 0  9999
2 54130  87.9183 300.8560 0001727 108.0632 252.0689 13.19726385179532
ONEWEB-0513             
1 54131U 22138U   26188.85179118  .00000026  00000+0  32525-4 0  9993
2 54131  87.9190 300.7981 0001232 121.2007 238.9247 13.20269814179445
ONEWEB-0514             
1 54132U 22138V   26188.87047594  .00000024  00000+0  26723-4 0  9999
2 54132  87.9191 300.8487 0001996  96.2550 263.8811 13.19726053179557
ONEWEB-0515             
1 54133U 22138W   26189.17894491  .00000113  00000+0  24523-3 0  9994
2 54133  87.9195 270.2486 0002914  93.1958 266.9509 13.20772088182070
ONEWEB-0516             
1 54134U 22138X   26188.84518970 -.00000008  00000+0 -52234-4 0  9999
2 54134  87.9185 300.8579 0002050 104.2820 255.8541 13.19726299179559
ONEWEB-0517             
1 54135U 22138Y   26188.82467216  .00000077  00000+0  16017-3 0  9996
2 54135  87.9194 300.8559 0001713  95.7653 264.3675 13.19725550179553
ONEWEB-0518             
1 54136U 22138Z   26188.84361032  .00000001  00000+0 -28699-4 0  9996
2 54136  87.9185 300.8604 0002132 102.4840 257.6532 13.19723815179554
ONEWEB-0519             
1 54137U 22138AA  26188.86888140  .00000039  00000+0  66115-4 0  9998
2 54137  87.9190 300.8487 0001825  95.8803 264.2538 13.19727203179568
ONEWEB-0520             
1 54138U 22138AB  26188.82783315  .00000006  00000+0 -16311-4 0  9991
2 54138  87.9195 300.8565 0001924 108.7835 251.3506 13.19725914179547
ONEWEB-0521             
1 54139U 22138AC  26188.86099051  .00000030  00000+0  42573-4 0  9998
2 54139  87.9194 300.8392 0001868  94.7454 265.3892 13.19726783179495
ONEWEB-0522             
1 54140U 22138AD  26188.84047051 -.00000013  00000+0 -64863-4 0  9990
2 54140  87.9196 300.8459 0001871 104.5381 255.5959 13.19725528179532
ONEWEB-0523             
1 54141U 22138AE  26188.71092351  .00000058  00000+0  11109-3 0  9991
2 54141  87.9192 270.3518 0002521  82.5428 277.5992 13.20772250182010
ONEWEB-0524             
1 54142U 22138AF  26188.77658310  .00000020  00000+0  18442-4 0  9998
2 54142  87.9193 270.3351 0002939  98.1811 261.9656 13.20772388182026
ONEWEB-0525             
1 54143U 22138AG  26188.85940603  .00000008  00000+0 -12403-4 0  9995
2 54143  87.9190 300.8486 0002036 110.3395 249.7956 13.19726927179551
ONEWEB-0526             
1 54144U 22138AH  26189.12002199 -.00000127  00000+0 -34913-3 0  9998
2 54144  87.9192 300.7979 0002067 104.6981 255.4381 13.19725313179566
ONEWEB-0529             
1 54145U 22138AJ  26188.81993553  .00000055  00000+0  10612-3 0  9995
2 54145  87.9185 300.8651 0001952 107.6748 252.4598 13.19725591179546
ONEWEB-0531             
1 54146U 22138AK  26188.76311073 -.00000099  00000+0 -27558-3 0  9998
2 54146  87.9190 270.3350 0002770  86.3585 273.7865 13.20772776182020
